CCSDS_OMM_VERS = 2.0
CREATION_DATE  = 
ORIGINATOR     = 

OBJECT_NAME    = STARLINK-35395
OBJECT_ID      = 2025-232K
CENTER_NAME    = EARTH
REF_FRAME      = TEME
TIME_SYSTEM    = UTC
MEAN_ELEMENT_THEORY = SGP/SGP4

EPOCH          = 2025-11-03T22:00:03.000096
MEAN_MOTION    = 15.53316731
ECCENTRICITY   = .00012118
INCLINATION    = 53.1593
RA_OF_ASC_NODE = 330.7690
ARG_OF_PERICENTER = 92.5715
MEAN_ANOMALY   = 200.5730

EPHEMERIS_TYPE = 0
CLASSIFICATION_TYPE = U
NORAD_CAT_ID   = 66014
ELEMENT_SET_NO = 999
REV_AT_EPOCH   = 330
BSTAR          = -.34253529E-1
MEAN_MOTION_DOT = -.1969858E-1
MEAN_MOTION_DDOT = 0

CCSDS_OMM_VERS = 2.0
CREATION_DATE  = 
ORIGINATOR     = 

OBJECT_NAME    = STARLINK-34622
OBJECT_ID      = 2025-232L
CENTER_NAME    = EARTH
REF_FRAME      = TEME
TIME_SYSTEM    = UTC
MEAN_ELEMENT_THEORY = SGP/SGP4

EPOCH          = 2025-11-03T22:00:03.000096
MEAN_MOTION    = 15.53341760
ECCENTRICITY   = .0001063
INCLINATION    = 53.1672
RA_OF_ASC_NODE = 330.7530
ARG_OF_PERICENTER = 84.1109
MEAN_ANOMALY   = 216.6958

EPHEMERIS_TYPE = 0
CLASSIFICATION_TYPE = U
NORAD_CAT_ID   = 66015
ELEMENT_SET_NO = 999
REV_AT_EPOCH   = 320
BSTAR          = -.35326755E-1
MEAN_MOTION_DOT = -.2026569E-1
MEAN_MOTION_DDOT = 0

CCSDS_OMM_VERS = 2.0
CREATION_DATE  = 
ORIGINATOR     = 

OBJECT_NAME    = STARLINK-35243
OBJECT_ID      = 2025-232M
CENTER_NAME    = EARTH
REF_FRAME      = TEME
TIME_SYSTEM    = UTC
MEAN_ELEMENT_THEORY = SGP/SGP4

EPOCH          = 2025-11-03T22:00:03.000096
MEAN_MOTION    = 15.53316920
ECCENTRICITY   = .0001314
INCLINATION    = 53.1590
RA_OF_ASC_NODE = 330.7573
ARG_OF_PERICENTER = 97.1994
MEAN_ANOMALY   = 201.6957

EPHEMERIS_TYPE = 0
CLASSIFICATION_TYPE = U
NORAD_CAT_ID   = 66016
ELEMENT_SET_NO = 999
REV_AT_EPOCH   = 331
BSTAR          = -.34260232E-1
MEAN_MOTION_DOT = -.1970274E-1
MEAN_MOTION_DDOT = 0

CCSDS_OMM_VERS = 2.0
CREATION_DATE  = 
ORIGINATOR     = 

OBJECT_NAME    = STARLINK-35398
OBJECT_ID      = 2025-232N
CENTER_NAME    = EARTH
REF_FRAME      = TEME
TIME_SYSTEM    = UTC
MEAN_ELEMENT_THEORY = SGP/SGP4

EPOCH          = 2025-11-03T22:00:03.000096
MEAN_MOTION    = 15.53320293
ECCENTRICITY   = .00011866
INCLINATION    = 53.1593
RA_OF_ASC_NODE = 330.7456
ARG_OF_PERICENTER = 89.5185
MEAN_ANOMALY   = 215.1257

EPHEMERIS_TYPE = 0
CLASSIFICATION_TYPE = U
NORAD_CAT_ID   = 66017
ELEMENT_SET_NO = 999
REV_AT_EPOCH   = 323
BSTAR          = -.34387185E-1
MEAN_MOTION_DOT = -.1976963E-1
MEAN_MOTION_DDOT = 0

CCSDS_OMM_VERS = 2.0
CREATION_DATE  = 
ORIGINATOR     = 

OBJECT_NAME    = STARLINK-35376
OBJECT_ID      = 2025-232P
CENTER_NAME    = EARTH
REF_FRAME      = TEME
TIME_SYSTEM    = UTC
MEAN_ELEMENT_THEORY = SGP/SGP4

EPOCH          = 2025-11-03T22:00:03.000096
MEAN_MOTION    = 15.53318968
ECCENTRICITY   = .00012282
INCLINATION    = 53.1593
RA_OF_ASC_NODE = 330.7491
ARG_OF_PERICENTER = 96.3653
MEAN_ANOMALY   = 206.3618

EPHEMERIS_TYPE = 0
CLASSIFICATION_TYPE = U
NORAD_CAT_ID   = 66018
ELEMENT_SET_NO = 999
REV_AT_EPOCH   = 331
BSTAR          = -.34300919E-1
MEAN_MOTION_DOT = -.1972455E-1
MEAN_MOTION_DDOT = 0

CCSDS_OMM_VERS = 2.0
CREATION_DATE  = 
ORIGINATOR     = 

OBJECT_NAME    = STARLINK-35382
OBJECT_ID      = 2025-232Q
CENTER_NAME    = EARTH
REF_FRAME      = TEME
TIME_SYSTEM    = UTC
MEAN_ELEMENT_THEORY = SGP/SGP4

EPOCH          = 2025-11-03T22:00:03.000096
MEAN_MOTION    = 15.53318625
ECCENTRICITY   = .00012224
INCLINATION    = 53.1592
RA_OF_ASC_NODE = 330.7608
ARG_OF_PERICENTER = 97.0715
MEAN_ANOMALY   = 199.9055

EPHEMERIS_TYPE = 0
CLASSIFICATION_TYPE = U
NORAD_CAT_ID   = 66019
ELEMENT_SET_NO = 999
REV_AT_EPOCH   = 331
BSTAR          = -.34295398E-1
MEAN_MOTION_DOT = -.1972145E-1
MEAN_MOTION_DDOT = 0

CCSDS_OMM_VERS = 2.0
CREATION_DATE  = 
ORIGINATOR     = 

OBJECT_NAME    = STARLINK-35430
OBJECT_ID      = 2025-232R
CENTER_NAME    = EARTH
REF_FRAME      = TEME
TIME_SYSTEM    = UTC
MEAN_ELEMENT_THEORY = SGP/SGP4

EPOCH          = 2025-11-03T22:00:03.000096
MEAN_MOTION    = 15.53315063
ECCENTRICITY   = .00013689
INCLINATION    = 53.1598
RA_OF_ASC_NODE = 330.7371
ARG_OF_PERICENTER = 92.9267
MEAN_ANOMALY   = 215.5548

EPHEMERIS_TYPE = 0
CLASSIFICATION_TYPE = U
NORAD_CAT_ID   = 66020
ELEMENT_SET_NO = 999
REV_AT_EPOCH   = 330
BSTAR          = -.34259462E-1
MEAN_MOTION_DOT = -.1970145E-1
MEAN_MOTION_DDOT = 0

CCSDS_OMM_VERS = 2.0
CREATION_DATE  = 
ORIGINATOR     = 

OBJECT_NAME    = STARLINK-35432
OBJECT_ID      = 2025-232S
CENTER_NAME    = EARTH
REF_FRAME      = TEME
TIME_SYSTEM    = UTC
MEAN_ELEMENT_THEORY = SGP/SGP4

EPOCH          = 2025-11-03T22:00:03.000096
MEAN_MOTION    = 15.53318618
ECCENTRICITY   = .00011137
INCLINATION    = 53.1591
RA_OF_ASC_NODE = 330.7412
ARG_OF_PERICENTER = 91.2290
MEAN_ANOMALY   = 215.3329

EPHEMERIS_TYPE = 0
CLASSIFICATION_TYPE = U
NORAD_CAT_ID   = 66021
ELEMENT_SET_NO = 999
REV_AT_EPOCH   = 323
BSTAR          = -.34333603E-1
MEAN_MOTION_DOT = -.1974053E-1
MEAN_MOTION_DDOT = 0

CCSDS_OMM_VERS = 2.0
CREATION_DATE  = 
ORIGINATOR     = 

OBJECT_NAME    = STARLINK-35340
OBJECT_ID      = 2025-232T
CENTER_NAME    = EARTH
REF_FRAME      = TEME
TIME_SYSTEM    = UTC
MEAN_ELEMENT_THEORY = SGP/SGP4

EPOCH          = 2025-11-03T22:00:03.000096
MEAN_MOTION    = 15.53318963
ECCENTRICITY   = .00013269
INCLINATION    = 53.1597
RA_OF_ASC_NODE = 330.7323
ARG_OF_PERICENTER = 91.2390
MEAN_ANOMALY   = 219.1577

EPHEMERIS_TYPE = 0
CLASSIFICATION_TYPE = U
NORAD_CAT_ID   = 66022
ELEMENT_SET_NO = 999
REV_AT_EPOCH   = 330
BSTAR          = -.34380897E-1
MEAN_MOTION_DOT = -.1976633E-1
MEAN_MOTION_DDOT = 0

CCSDS_OMM_VERS = 2.0
CREATION_DATE  = 
ORIGINATOR     = 

OBJECT_NAME    = STARLINK-35394
OBJECT_ID      = 2025-232U
CENTER_NAME    = EARTH
REF_FRAME      = TEME
TIME_SYSTEM    = UTC
MEAN_ELEMENT_THEORY = SGP/SGP4

EPOCH          = 2025-11-03T22:00:03.000096
MEAN_MOTION    = 15.53318466
ECCENTRICITY   = .0001156
INCLINATION    = 53.1597
RA_OF_ASC_NODE = 330.7280
ARG_OF_PERICENTER = 87.6570
MEAN_ANOMALY   = 224.6561

EPHEMERIS_TYPE = 0
CLASSIFICATION_TYPE = U
NORAD_CAT_ID   = 66023
ELEMENT_SET_NO = 999
REV_AT_EPOCH   = 330
BSTAR          = -.34355929E-1
MEAN_MOTION_DOT = -.1975216E-1
MEAN_MOTION_DDOT = 0

CCSDS_OMM_VERS = 2.0
CREATION_DATE  = 
ORIGINATOR     = 

OBJECT_NAME    = STARLINK-35410
OBJECT_ID      = 2025-232V
CENTER_NAME    = EARTH
REF_FRAME      = TEME
TIME_SYSTEM    = UTC
MEAN_ELEMENT_THEORY = SGP/SGP4

EPOCH          = 2025-11-03T22:00:03.000096
MEAN_MOTION    = 15.53318648
ECCENTRICITY   = .00011933
INCLINATION    = 53.1594
RA_OF_ASC_NODE = 330.7204
ARG_OF_PERICENTER = 92.9493
MEAN_ANOMALY   = 223.1973

EPHEMERIS_TYPE = 0
CLASSIFICATION_TYPE = U
NORAD_CAT_ID   = 66024
ELEMENT_SET_NO = 999
REV_AT_EPOCH   = 330
BSTAR          = -.34340642E-1
MEAN_MOTION_DOT = -.1974462E-1
MEAN_MOTION_DDOT = 0

CCSDS_OMM_VERS = 2.0
CREATION_DATE  = 
ORIGINATOR     = 

OBJECT_NAME    = STARLINK-35280
OBJECT_ID      = 2025-232W
CENTER_NAME    = EARTH
REF_FRAME      = TEME
TIME_SYSTEM    = UTC
MEAN_ELEMENT_THEORY = SGP/SGP4

EPOCH          = 2025-11-03T22:00:03.000096
MEAN_MOTION    = 15.53316821
ECCENTRICITY   = .00011284
INCLINATION    = 53.1595
RA_OF_ASC_NODE = 330.7239
ARG_OF_PERICENTER = 85.3899
MEAN_ANOMALY   = 228.8428

EPHEMERIS_TYPE = 0
CLASSIFICATION_TYPE = U
NORAD_CAT_ID   = 66025
ELEMENT_SET_NO = 999
REV_AT_EPOCH   = 324
BSTAR          = -.34362298E-1
MEAN_MOTION_DOT = -.1975423E-1
MEAN_MOTION_DDOT = 0

