STARLINK-35395          
1 66014U 25232K   25307.91670139 -.01969858  00000+0 -34254-1 0  9990
2 66014  53.1593 330.7690 0001211  92.5715 200.5730 15.53316731  3305
STARLINK-34622          
1 66015U 25232L   25307.91670139 -.02026569  00000+0 -35327-1 0  9997
2 66015  53.1672 330.7530 0001063  84.1109 216.6958 15.53341760  3205
STARLINK-35243          
1 66016U 25232M   25307.91670139 -.01970274  00000+0 -34260-1 0  9993
2 66016  53.1590 330.7573 0001314  97.1994 201.6957 15.53316920  3312
STARLINK-35398          
1 66017U 25232N   25307.91670139 -.01976963  00000+0 -34387-1 0  9995
2 66017  53.1593 330.7456 0001186  89.5185 215.1257 15.53320293  3232
STARLINK-35376          
1 66018U 25232P   25307.91670139 -.01972455  00000+0 -34301-1 0  9994
2 66018  53.1593 330.7491 0001228  96.3653 206.3618 15.53318968  3313
STARLINK-35382          
1 66019U 25232Q   25307.91670139 -.01972145  00000+0 -34295-1 0  9993
2 66019  53.1592 330.7608 0001222  97.0715 199.9055 15.53318625  3316
STARLINK-35430          
1 66020U 25232R   25307.91670139 -.01970145  00000+0 -34259-1 0  9993
2 66020  53.1598 330.7371 0001368  92.9267 215.5548 15.53315063  3302
STARLINK-35432          
1 66021U 25232S   25307.91670139 -.01974053  00000+0 -34334-1 0  9990
2 66021  53.1591 330.7412 0001113  91.2290 215.3329 15.53318618  3234
STARLINK-35340          
1 66022U 25232T   25307.91670139 -.01976633  00000+0 -34381-1 0  9999
2 66022  53.1597 330.7323 0001326  91.2390 219.1577 15.53318963  3307
STARLINK-35394          
1 66023U 25232U   25307.91670139 -.01975216  00000+0 -34356-1 0  9998
2 66023  53.1597 330.7280 0001156  87.6570 224.6561 15.53318466  3302
STARLINK-35410          
1 66024U 25232V   25307.91670139 -.01974462  00000+0 -34341-1 0  9995
2 66024  53.1594 330.7204 0001193  92.9493 223.1973 15.53318648  3303
STARLINK-35280          
1 66025U 25232W   25307.91670139 -.01975423  00000+0 -34362-1 0  9997
2 66025  53.1595 330.7239 0001128  85.3899 228.8428 15.53316821  3248
